CUTE-1 (CO-55)          
1 27844U 03031E   21056.48185216  .00000080  00000-0  55802-4 0  9993
2 27844  98.6827  66.3804 0010643  47.7578 312.4500 14.22290380916064
CUBESAT XI-IV (CO-57)   
1 27848U 03031J   21056.44182637  .00000063  00000-0  48477-4 0  9998
2 27848  98.6887  66.9089 0010682  59.9459 300.2777 14.21869796915894
CUBESAT XI-V            
1 28895U 05043F   21056.60249908  .00000208  00000-0  48672-4 0  9997
2 28895  98.0395 192.4071 0016478 198.5408 161.5196 14.63869431817643
CUTE-1.7+APD II (CO-65) 
1 32785U 08021C   21056.41962622  .00000470  00000-0  55986-4 0  9990
2 32785  97.6000  39.6887 0013519  21.1274 339.0500 14.88640451695579
AAUSAT-II               
1 32788U 08021F   21056.41713205  .00001269  00000-0  11975-3 0  9990
2 32788  97.5010  55.8115 0010067 289.3432  70.6700 14.95409271697118
DELFI-C3 (DO-64)        
1 32789U 08021G   21056.53183156  .00002654  00000-0  17365-3 0  9998
2 32789  97.3899  96.1617 0012549 160.7923 199.3781 15.08531355699957
SEEDS II (CO-66)        
1 32791U 08021J   21056.78370287  .00000764  00000-0  82045-4 0  9999
2 32791  97.5622  46.0494 0012792 345.1787  14.9055 14.91289004696214
SWISSCUBE               
1 35932U 09051B   21056.79105087  .00000194  00000-0  54790-4 0  9991
2 35932  98.6077 253.2516 0008628  73.1829 287.0314 14.56492422606746
BEESAT-1                
1 35933U 09051C   21056.76127889  .00000164  00000-0  47894-4 0  9997
2 35933  98.6052 255.0702 0006892  84.9857 275.2126 14.56555702606852
ITUPSAT1                
1 35935U 09051E   21056.76782869  .00000136  00000-0  42390-4 0  9999
2 35935  98.6157 255.2365 0009209  84.9982 275.2265 14.55692277606550
TISAT 1                 
1 36799U 10035E   21056.29465891  .00000513  00000-0  57183-4 0  9998
2 36799  98.2048 242.5660 0011385 216.5467 143.4974 14.91613310576617
M-CUBED & EXP-1 PRIME   
1 37855U 11061F   21056.58503295  .00001963  00000-0  10194-3 0  9995
2 37855 101.7241 281.9814 0168203  43.3119 318.1175 15.07232207509795
AEROCUBE 4.5A           
1 38767U 12048K   21056.57223384  .00000527  00000-0  57532-4 0  9994
2 38767  64.6664 164.7291 0140216  44.2658 316.9567 14.92595789 79572
AEROCUBE 4.5B           
1 38768U 12048L   21056.61976867  .00000863  00000-0  78247-4 0  9990
2 38768  64.6665 128.5708 0131638  38.5647 322.4779 14.96386131 79757
STRAND-1                
1 39090U 13009E   21056.50888698  .00000068  00000-0  39011-4 0  9992
2 39090  98.4361 261.2877 0008071 249.6636 110.3683 14.35170047418983
SOMP                    
1 39134U 13015E   21056.24164466  .00003598  00000-0  16529-3 0  9998
2 39134  64.8642 177.2373 0008631 224.6850 135.3584 15.22050808434132
BEESAT-3                
1 39135U 13015F   21056.79815939  .00002721  00000-0  13882-3 0  9993
2 39135  64.8670 202.8103 0011450 198.2952 161.7765 15.18963241434078
BEESAT-2                
1 39136U 13015G   21056.42040882  .00002584  00000-0  13375-3 0  9995
2 39136  64.8753 209.9665 0027841 257.9100 101.8907 15.18343691433490
NEE-01 PEGASO           
1 39151U 13018B   21056.76018015  .00000271  00000-0  42563-4 0  9998
2 39151  97.9739 159.9225 0016901   4.8118 355.3253 14.80291236423154
ESTCUBE 1               
1 39161U 13021C   21056.69866324  .00000239  00000-0  45430-4 0  9999
2 39161  97.9461 140.4358 0010308 143.3365 216.8554 14.72428985419308
POPACS 1                
1 39268U 13055D   21056.36307087  .00005483  00000-0  14793-3 0  9997
2 39268  81.0011  28.3574 0607507 189.7117 169.1896 14.41547595384403
POPACS 2                
1 39269U 13055E   21056.35184679  .00004808  00000-0  13825-3 0  9992
2 39269  81.0116  72.4460 0670032 304.0610  49.8675 14.27117261382030
POPACS 3                
1 39270U 13055F   21055.85414668  .00004144  00000-0  12751-3 0  9992
2 39270  81.0138  98.2164 0705850  17.6424 344.7962 14.17950924381585
ZACUBE-1 (TSHEPISOSAT)  
1 39417U 13066B   21055.99337273  .00000314  00000-0  45335-4 0  9998
2 39417  97.5839  46.2089 0058935 168.3824 191.8766 14.81434099392429
WNISAT-1                
1 39423U 13066H   21056.71181104  .00000071  00000-0  23787-4 0  9993
2 39423  97.8008 326.8912 0174931 185.3560 174.5780 14.53187969385202
TRITON-1                
1 39427U 13066M   21056.82019658  .00000474  00000-0  83053-4 0  9992
2 39427  97.7619  10.1909 0113271 348.6140  11.2506 14.68160702389029
GOMX-1                  
1 39430U 13066Q   21056.85842952  .00000292  00000-0  61030-4 0  9999
2 39430  97.8102 346.3597 0151952 106.1355 255.6642 14.59540219386769
CUBEBUG-2 (LO-74)       
1 39440U 13066AA  21056.33998755  .00000343  00000-0  54480-4 0  9994
2 39440  97.6628  31.3089 0078586 238.8309 120.5180 14.76169486389886
NEE-02 KRYSAOR          
1 39441U 13066AB  21056.38979025  .00000237  00000-0  40764-4 0  9991
2 39441  97.6719  28.7455 0080091 249.2332 110.0283 14.75129325389695
FUNCUBE-1 (AO-73)       
1 39444U 13066AE  21056.24824783  .00000434  00000-0  59015-4 0  9997
2 39444  97.5757  48.7886 0058277 158.5492 201.8183 14.82323665390814
UWE-3                   
1 39446U 13066AG  21056.16648362  .00000295  00000-0  45530-4 0  9999
2 39446  97.6252  38.1851 0069072 204.3801 155.4139 14.78702679389916
AEROCUBE 5A             
1 39465U 13072D   21056.33528249  .00007322  00000-0  56584-3 0  9995
2 39465 120.4957   0.9430 0260936 142.3510 219.6116 14.79622240 78744
AEROCUBE 5B             
1 39466U 13072E   21056.25059135  .00012623  00000-0  79976-3 0  9990
2 39466 120.4725  51.4176 0230686 153.2641 208.0519 14.90090210 79199
BRITE-CA1 (TORONTO)     
1 40020U 14033L   21056.72350583  .00000119  00000-0  28663-4 0  9994
2 40020  97.7339 236.4911 0086896 345.3407  14.5280 14.66710803357882
DUCHIFAT-1              
1 40021U 14033M   21056.54856197  .00000623  00000-0  68472-4 0  9999
2 40021  97.9636 355.6314 0012918 166.8213 193.3344 14.91194400363602
NANOSATC-BR1            
1 40024U 14033Q   21056.24583888  .00000622  00000-0  69879-4 0  9994
2 40024  97.9443 350.8229 0012123 172.9123 187.2268 14.90316037362886
QB50P1                  
1 40025U 14033R   21056.22437120  .00000557  00000-0  64628-4 0  9994
2 40025  97.9280 346.6643 0012195 181.3387 178.7799 14.89338639362710
QB50P2                  
1 40032U 14033Y   21056.55664545  .00000464  00000-0  55518-4 0  9996
2 40032  97.9135 343.8680 0011715 177.0676 183.0612 14.88854149363168
PERSEUS-M2              
1 40037U 14033AD  21056.48104609  .00000204  00000-0  29196-4 0  9998
2 40037  97.8910 336.9170 0013856 197.2429 162.8318 14.86630518362255
PERSEUS-M1              
1 40039U 14033AF  21056.21850732  .00000203  00000-0  29355-4 0  9992
2 40039  97.8858 335.1436 0013714 196.3955 163.6819 14.86251139362119
POLYITAN-1              
1 40042U 14033AJ  21056.79865278  .00000631  00000-0  72830-4 0  9991
2 40042  97.9372 347.9521 0014585 171.3478 188.7993 14.89127271363205
TIGRISAT                
1 40043U 14033AK  21055.53675504  .00000241  00000-0  42791-4 0  9994
2 40043  97.6833 265.2124 0058418 263.4884  95.9673 14.74482998359194
AEROCUBE 6A             
1 40045U 14033AM  21056.54228621  .00000377  00000-0  61087-4 0  9991
2 40045  97.7078 272.8956 0056443 250.3694 109.1419 14.75743193359436
AEROCUBE 6B             
1 40046U 14033AN  21056.55199439  .00000483  00000-0  76088-4 0  9992
2 40046  97.6978 271.8776 0055491 249.1509 110.3753 14.75754995359816
UKUBE-1                 
1 40074U 14037F   21056.55803828  .00000453  00000-0  61007-4 0  9993
2 40074  98.4403 265.8627 0005076  37.0568 323.1029 14.84463913359301
BRITE-PL2 (HEWELIUSZ)   
1 40119U 14049B   21056.21090579  .00000205  00000-0  30620-4 0  9992
2 40119  97.8873 151.8978 0017414   7.8881 352.2604 14.84605107353196
FIREBIRD 4              
1 40378U 15003C   21056.77165227  .00006566  00000-0  24295-3 0  9990
2 40378  99.0835 174.9402 0120048 186.4803 173.4882 15.21581597335817
GRIFEX                  
1 40379U 15003D   21056.52759289  .00004236  00000-0  17478-3 0  9998
2 40379  99.0823 164.9000 0129528 217.4607 141.7541 15.17427912335205
CP10 (EXOCUBE)          
1 40380U 15003E   21056.22389839  .00003252  00000-0  14251-3 0  9990
2 40380  99.0857 159.4048 0134730 236.1717 122.6626 15.15195024334818
AEROCUBE 8A             
1 40659U 15025J   21056.66321025  .00054804  00000-0  38717-3 0  9996
2 40659  55.0103 192.7977 0079941 117.5077 243.4119 15.69182945 83128
AEROCUBE 8B             
1 40660U 15025K   21056.43766869  .00060999  00000-0  42029-3 0  9995
2 40660  55.0074 190.8881 0078435 119.4622 241.4275 15.69855203 83118
TIANWANG 1C (TW-1C)     
1 40926U 15051B   21056.44064455  .02633745  22183-5  13669-2 0  9997
2 40926  97.0252 119.3435 0005041 251.4174 119.2932 16.20330625306899
TIANWANG 1A (TW-1A)     
1 40928U 15051D   21056.89917906  .00006928  00000-0  15039-3 0  9994
2 40928  97.0887  84.5051 0009294 353.4438 128.5488 15.44640043304465
EXACTVIEW 9             
1 40936U 15052G   21056.18445789  .00000894  00000-0  35658-4 0  9997
2 40936   6.0041 338.0675 0011092 241.9147 117.9859 14.76657661292572
AEROCUBE 5C             
1 40965U 15058B   21056.39743706  .00000351  00000-0  57861-4 0  9996
2 40965  64.7766  97.7218 0193712 345.5689  13.9926 14.74674810 78602
AEROCUBE 7              
1 40966U 15058C   21056.52712094  .00000486  00000-0  72296-4 0  9996
2 40966  64.7766  95.4351 0192702 345.1759  14.3740 14.75010068 78630
ATHENOXAT 1             
1 41168U 15077C   21056.52300597  .00003201  00000-0  12898-3 0  9992
2 41168  14.9901   3.6697 0011596  54.9212  90.7317 15.15225699287775
GALASSIA                
1 41170U 15077E   21056.16841169  .00003233  00000-0  12952-3 0  9996
2 41170  14.9901 357.2709 0012190  76.9610 283.2071 15.15483043287705
VELOX-II                
1 41171U 15077F   21056.32051073  .00002596  00000-0  10779-3 0  9998
2 41171  14.9922  49.5296 0008540 317.0877  42.8777 15.12249346287300
